[{"OBJECT_NAME":"IRIDIUM 33 DEB","OBJECT_ID":"1997-051BV","EPOCH":"2026-04-03T21:20:16.294272","MEAN_MOTION":14.918146,"ECCENTRICITY":0.00013988,"INCLINATION":86.2526,"RA_OF_ASC_NODE":236.342,"ARG_OF_PERICENTER":65.9998,"MEAN_ANOMALY":58.6718,"EPHEMERIS_TYPE":0,"CLASSIFICATION_TYPE":"U","NORAD_CAT_ID":33960,"ELEMENT_SET_NO":999,"REV_AT_EPOCH":90535,"BSTAR":0.0049979692,"MEAN_MOTION_DOT":0.00050741,"MEAN_MOTION_DDOT":0},{"OBJECT_NAME":"IRIDIUM 33 DEB","OBJECT_ID":"1997-051CB","EPOCH":"2026-04-04T06:17:36.762720","MEAN_MOTION":14.50164658,"ECCENTRICITY":0.00070958,"INCLINATION":86.3973,"RA_OF_ASC_NODE":357.7309,"ARG_OF_PERICENTER":169.5208,"MEAN_ANOMALY":316.3041,"EPHEMERIS_TYPE":0,"CLASSIFICATION_TYPE":"U","NORAD_CAT_ID":33966,"ELEMENT_SET_NO":999,"REV_AT_EPOCH":90072,"BSTAR":0.00087445923,"MEAN_MOTION_DOT":3.417e-5,"MEAN_MOTION_DDOT":0},{"OBJECT_NAME":"IRIDIUM 33 DEB","OBJECT_ID":"1997-051CE","EPOCH":"2026-04-04T03:53:02.314176","MEAN_MOTION":14.50123281,"ECCENTRICITY":0.0009715,"INCLINATION":86.346,"RA_OF_ASC_NODE":328.9651,"ARG_OF_PERICENTER":91.0616,"MEAN_ANOMALY":269.1701,"EPHEMERIS_TYPE":0,"CLASSIFICATION_TYPE":"U","NORAD_CAT_ID":34071,"ELEMENT_SET_NO":999,"REV_AT_EPOCH":89963,"BSTAR":0.00091468758,"MEAN_MOTION_DOT":3.572e-5,"MEAN_MOTION_DDOT":0},{"OBJECT_NAME":"IRIDIUM 33 DEB","OBJECT_ID":"1997-051CL","EPOCH":"2026-04-04T06:33:58.378176","MEAN_MOTION":14.67155086,"ECCENTRICITY":0.00103472,"INCLINATION":86.3896,"RA_OF_ASC_NODE":1.8523,"ARG_OF_PERICENTER":15.8643,"MEAN_ANOMALY":105.526,"EPHEMERIS_TYPE":0,"CLASSIFICATION_TYPE":"U","NORAD_CAT_ID":34077,"ELEMENT_SET_NO":999,"REV_AT_EPOCH":89981,"BSTAR":0.002796109,"MEAN_MOTION_DOT":0.00015773,"MEAN_MOTION_DDOT":0},{"OBJECT_NAME":"IRIDIUM 33 DEB","OBJECT_ID":"1997-051CN","EPOCH":"2026-04-04T01:30:10.947744","MEAN_MOTION":14.87845649,"ECCENTRICITY":0.00053382,"INCLINATION":86.3741,"RA_OF_ASC_NODE":317.4093,"ARG_OF_PERICENTER":325.2016,"MEAN_ANOMALY":187.902,"EPHEMERIS_TYPE":0,"CLASSIFICATION_TYPE":"U","NORAD_CAT_ID":34079,"ELEMENT_SET_NO":999,"REV_AT_EPOCH":90645,"BSTAR":0.0027774819,"MEAN_MOTION_DOT":0.00025481,"MEAN_MOTION_DDOT":0},{"OBJECT_NAME":"IRIDIUM 33 DEB","OBJECT_ID":"1997-051CX","EPOCH":"2026-04-04T04:23:59.636832","MEAN_MOTION":14.99995024,"ECCENTRICITY":0.00048268,"INCLINATION":86.3837,"RA_OF_ASC_NODE":338.7322,"ARG_OF_PERICENTER":117.0921,"MEAN_ANOMALY":6.1486,"EPHEMERIS_TYPE":0,"CLASSIFICATION_TYPE":"U","NORAD_CAT_ID":34088,"ELEMENT_SET_NO":999,"REV_AT_EPOCH":90422,"BSTAR":0.0044401719,"MEAN_MOTION_DOT":0.00055589,"MEAN_MOTION_DDOT":0},{"OBJECT_NAME":"IRIDIUM 33 DEB","OBJECT_ID":"1997-051DA","EPOCH":"2026-04-04T05:36:20.727936","MEAN_MOTION":14.92114857,"ECCENTRICITY":0.0024539,"INCLINATION":86.3476,"RA_OF_ASC_NODE":14.9163,"ARG_OF_PERICENTER":260.1536,"MEAN_ANOMALY":99.6922,"EPHEMERIS_TYPE":0,"CLASSIFICATION_TYPE":"U","NORAD_CAT_ID":34091,"ELEMENT_SET_NO":999,"REV_AT_EPOCH":89538,"BSTAR":0.0059365305,"MEAN_MOTION_DOT":0.00061148,"MEAN_MOTION_DDOT":0},{"OBJECT_NAME":"IRIDIUM 33 DEB","OBJECT_ID":"1997-051DG","EPOCH":"2026-04-04T01:01:36.512544","MEAN_MOTION":14.3573156,"ECCENTRICITY":0.0081822,"INCLINATION":86.1967,"RA_OF_ASC_NODE":311.8142,"ARG_OF_PERICENTER":355.5304,"MEAN_ANOMALY":4.5151,"EPHEMERIS_TYPE":0,"CLASSIFICATION_TYPE":"U","NORAD_CAT_ID":34097,"ELEMENT_SET_NO":999,"REV_AT_EPOCH":88730,"BSTAR":0.0018757846,"MEAN_MOTION_DOT":5.649e-5,"MEAN_MOTION_DDOT":0},{"OBJECT_NAME":"IRIDIUM 33 DEB","OBJECT_ID":"1997-051DY","EPOCH":"2026-04-04T05:41:24.504288","MEAN_MOTION":14.43266251,"ECCENTRICITY":0.00541503,"INCLINATION":86.2054,"RA_OF_ASC_NODE":282.3769,"ARG_OF_PERICENTER":83.2819,"MEAN_ANOMALY":277.454,"EPHEMERIS_TYPE":0,"CLASSIFICATION_TYPE":"U","NORAD_CAT_ID":34145,"ELEMENT_SET_NO":999,"REV_AT_EPOCH":89260,"BSTAR":0.001702872,"MEAN_MOTION_DOT":5.855e-5,"MEAN_MOTION_DDOT":0},{"OBJECT_NAME":"IRIDIUM 33 DEB","OBJECT_ID":"1997-051DZ","EPOCH":"2026-04-04T00:37:37.661376","MEAN_MOTION":14.49859368,"ECCENTRICITY":0.00254809,"INCLINATION":86.2787,"RA_OF_ASC_NODE":300.1775,"ARG_OF_PERICENTER":208.0321,"MEAN_ANOMALY":305.4451,"EPHEMERIS_TYPE":0,"CLASSIFICATION_TYPE":"U","NORAD_CAT_ID":34146,"ELEMENT_SET_NO":999,"REV_AT_EPOCH":89733,"BSTAR":0.0010921999,"MEAN_MOTION_DOT":4.253e-5,"MEAN_MOTION_DDOT":0},{"OBJECT_NAME":"IRIDIUM 33 DEB","OBJECT_ID":"1997-051EN","EPOCH":"2026-04-04T04:49:50.832192","MEAN_MOTION":14.38827418,"ECCENTRICITY":0.00257767,"INCLINATION":86.3559,"RA_OF_ASC_NODE":0.2909,"ARG_OF_PERICENTER":280.0625,"MEAN_ANOMALY":79.7665,"EPHEMERIS_TYPE":0,"CLASSIFICATION_TYPE":"U","NORAD_CAT_ID":34159,"ELEMENT_SET_NO":999,"REV_AT_EPOCH":89576,"BSTAR":0.00056326235,"MEAN_MOTION_DOT":1.757e-5,"MEAN_MOTION_DDOT":0},{"OBJECT_NAME":"IRIDIUM 33 DEB","OBJECT_ID":"1997-051ES","EPOCH":"2026-04-04T02:27:58.432032","MEAN_MOTION":14.45753606,"ECCENTRICITY":0.00226382,"INCLINATION":86.3258,"RA_OF_ASC_NODE":314.0629,"ARG_OF_PERICENTER":122.8705,"MEAN_ANOMALY":32.8181,"EPHEMERIS_TYPE":0,"CLASSIFICATION_TYPE":"U","NORAD_CAT_ID":34350,"ELEMENT_SET_NO":999,"REV_AT_EPOCH":89916,"BSTAR":0.00045907234,"MEAN_MOTION_DOT":1.651e-5,"MEAN_MOTION_DDOT":0},{"OBJECT_NAME":"IRIDIUM 33 DEB","OBJECT_ID":"1997-051FJ","EPOCH":"2026-04-04T05:41:40.869312","MEAN_MOTION":14.55269439,"ECCENTRICITY":0.0021977,"INCLINATION":86.3736,"RA_OF_ASC_NODE":0.3431,"ARG_OF_PERICENTER":117.8311,"MEAN_ANOMALY":51.1175,"EPHEMERIS_TYPE":0,"CLASSIFICATION_TYPE":"U","NORAD_CAT_ID":34366,"ELEMENT_SET_NO":999,"REV_AT_EPOCH":89817,"BSTAR":0.0017968742,"MEAN_MOTION_DOT":7.829e-5,"MEAN_MOTION_DDOT":0},{"OBJECT_NAME":"IRIDIUM 33 DEB","OBJECT_ID":"1997-051FT","EPOCH":"2026-04-04T02:07:36.941664","MEAN_MOTION":14.18229772,"ECCENTRICITY":0.01039029,"INCLINATION":86.4304,"RA_OF_ASC_NODE":137.4404,"ARG_OF_PERICENTER":129.4667,"MEAN_ANOMALY":260.9982,"EPHEMERIS_TYPE":0,"CLASSIFICATION_TYPE":"U","NORAD_CAT_ID":34375,"ELEMENT_SET_NO":999,"REV_AT_EPOCH":88304,"BSTAR":0.00056142001,"MEAN_MOTION_DOT":1.237e-5,"MEAN_MOTION_DDOT":0},{"OBJECT_NAME":"IRIDIUM 33 DEB","OBJECT_ID":"1997-051FU","EPOCH":"2026-04-03T18:57:20.628576","MEAN_MOTION":14.6495456,"ECCENTRICITY":0.00256621,"INCLINATION":86.2943,"RA_OF_ASC_NODE":316.0758,"ARG_OF_PERICENTER":145.8157,"MEAN_ANOMALY":214.4714,"EPHEMERIS_TYPE":0,"CLASSIFICATION_TYPE":"U","NORAD_CAT_ID":34376,"ELEMENT_SET_NO":999,"REV_AT_EPOCH":89646,"BSTAR":0.0026615697,"MEAN_MOTION_DOT":0.0001435,"MEAN_MOTION_DDOT":0},{"OBJECT_NAME":"IRIDIUM 33 DEB","OBJECT_ID":"1997-051GB","EPOCH":"2026-04-04T02:19:11.804160","MEAN_MOTION":15.03852684,"ECCENTRICITY":0.00109637,"INCLINATION":86.388,"RA_OF_ASC_NODE":319.8426,"ARG_OF_PERICENTER":70.7373,"MEAN_ANOMALY":83.3645,"EPHEMERIS_TYPE":0,"CLASSIFICATION_TYPE":"U","NORAD_CAT_ID":34486,"ELEMENT_SET_NO":999,"REV_AT_EPOCH":90670,"BSTAR":0.0040429573,"MEAN_MOTION_DOT":0.00056079,"MEAN_MOTION_DDOT":0}]
