IRIDIUM 33 DEB          
1 33960U 97051BV  26093.88907748  .00050741  00000+0  49980-2 0  9992
2 33960  86.2526 236.3420 0001398  65.9998  58.6718 14.91814600905350
IRIDIUM 33 DEB          
1 33966U 97051CB  26094.26223105  .00003417  00000+0  87446-3 0  9997
2 33966  86.3973 357.7309 0007095 169.5208 316.3041 14.50164658900727
IRIDIUM 33 DEB          
1 34071U 97051CE  26094.16183234  .00003572  00000+0  91469-3 0  9994
2 34071  86.3460 328.9651 0009715  91.0616 269.1701 14.50123281899631
IRIDIUM 33 DEB          
1 34077U 97051CL  26094.27359234  .00015773  00000+0  27961-2 0  9998
2 34077  86.3896   1.8523 0010347  15.8643 105.5260 14.67155086899811
IRIDIUM 33 DEB          
1 34079U 97051CN  26094.06262671  .00025481  00000+0  27775-2 0  9995
2 34079  86.3741 317.4093 0005338 325.2016 187.9020 14.87845649906456
IRIDIUM 33 DEB          
1 34088U 97051CX  26094.18332913  .00055589  00000+0  44402-2 0  9993
2 34088  86.3837 338.7322 0004826 117.0921   6.1486 14.99995024904223
IRIDIUM 33 DEB          
1 34091U 97051DA  26094.23357324  .00061148  00000+0  59365-2 0  9998
2 34091  86.3476  14.9163 0024539 260.1536  99.6922 14.92114857895385
IRIDIUM 33 DEB          
1 34097U 97051DG  26094.04278371  .00005649  00000+0  18758-2 0  9992
2 34097  86.1967 311.8142 0081822 355.5304   4.5151 14.35731560887305
IRIDIUM 33 DEB          
1 34145U 97051DY  26094.23708917  .00005855  00000+0  17029-2 0  9990
2 34145  86.2054 282.3769 0054150  83.2819 277.4540 14.43266251892605
IRIDIUM 33 DEB          
1 34146U 97051DZ  26094.02613034  .00004253  00000+0  10922-2 0  9999
2 34146  86.2787 300.1775 0025480 208.0321 305.4451 14.49859368897335
IRIDIUM 33 DEB          
1 34159U 97051EN  26094.20128278  .00001757  00000+0  56326-3 0  9999
2 34159  86.3559   0.2909 0025776 280.0625  79.7665 14.38827418895761
IRIDIUM 33 DEB          
1 34350U 97051ES  26094.10275963  .00001651  00000+0  45907-3 0  9991
2 34350  86.3258 314.0629 0022638 122.8705  32.8181 14.45753606899167
IRIDIUM 33 DEB          
1 34366U 97051FJ  26094.23727858  .00007829  00000+0  17969-2 0  9996
2 34366  86.3736   0.3431 0021977 117.8311  51.1175 14.55269439898177
IRIDIUM 33 DEB          
1 34375U 97051FT  26094.08862201  .00001237  00000+0  56142-3 0  9995
2 34375  86.4304 137.4404 0103902 129.4667 260.9982 14.18229772883044
IRIDIUM 33 DEB          
1 34376U 97051FU  26093.78982209  .00014350  00000+0  26616-2 0  9995
2 34376  86.2943 316.0758 0025662 145.8157 214.4714 14.64954560896469
IRIDIUM 33 DEB          
1 34486U 97051GB  26094.09666440  .00056079  00000+0  40430-2 0  9992
2 34486  86.3880 319.8426 0010963  70.7373  83.3645 15.03852684906702
